{
  "type": "FeatureCollection",
  "features": [
    {
      "type": "Feature",
      "properties": {
        "norad_id": 19071,
        "name": "OSCAR 32",
        "group": "nnss",
        "lat": 80.99325635258792,
        "lon": 14.53719989003787,
        "alt_km": 1124.351323928403,
        "timestamp": "2025-12-14T03:55:53.056171+00:00",
        "meta_object_name": "OSCAR 32",
        "meta_object_id": "1988-033B",
        "meta_epoch": "2025-12-13T07:41:12.269760",
        "meta_mean_motion": 13.27954073,
        "meta_eccentricity": 0.01884189,
        "meta_inclination": 90.3218,
        "meta_ra_of_asc_node": 16.5427,
        "meta_arg_of_pericenter": 165.1766,
        "meta_mean_anomaly": 207.7212,
        "meta_ephemeris_type": 0,
        "meta_classification_type": "U",
        "meta_norad_cat_id": 19071,
        "meta_element_set_no": 999,
        "meta_rev_at_epoch": 82273,
        "meta_bstar": 0.00019355788,
        "meta_mean_motion_dot": 1.05e-06,
        "meta_mean_motion_ddot": 0,
        "tle_line1": "1 19071U 88033B   25347.32028090  .00000105  00000+0  19356-3 0  9997",
        "tle_line2": "2 19071  90.3218  16.5427 0188418 165.1766 207.7212 13.27954073822734"
      },
      "geometry": {
        "type": "Point",
        "coordinates": [
          14.53719989003787,
          80.99325635258792
        ]
      }
    },
    {
      "type": "Feature",
      "properties": {
        "norad_id": 19223,
        "name": "NOVA 2",
        "group": "nnss",
        "lat": -74.41261578368538,
        "lon": -101.68301395657721,
        "alt_km": 1191.9435470222488,
        "timestamp": "2025-12-14T03:55:53.056181+00:00",
        "meta_object_name": "NOVA 2",
        "meta_object_id": "1988-052A",
        "meta_epoch": "2025-12-13T06:58:55.825824",
        "meta_mean_motion": 13.22935915,
        "meta_eccentricity": 0.00305458,
        "meta_inclination": 89.9871,
        "meta_ra_of_asc_node": 78.2718,
        "meta_arg_of_pericenter": 15.4013,
        "meta_mean_anomaly": 44.5186,
        "meta_ephemeris_type": 0,
        "meta_classification_type": "U",
        "meta_norad_cat_id": 19223,
        "meta_element_set_no": 999,
        "meta_rev_at_epoch": 80955,
        "meta_bstar": 0.00018175727,
        "meta_mean_motion_dot": 8.5e-07,
        "meta_mean_motion_ddot": 0,
        "tle_line1": "1 19223U 88052A   25347.29092391  .00000085  00000+0  18176-3 0  9994",
        "tle_line2": "2 19223  89.9871  78.2718 0030545  15.4013  44.5186 13.22935915809550"
      },
      "geometry": {
        "type": "Point",
        "coordinates": [
          -101.68301395657721,
          -74.41261578368538
        ]
      }
    },
    {
      "type": "Feature",
      "properties": {
        "norad_id": 19419,
        "name": "OSCAR 25",
        "group": "nnss",
        "lat": 71.45538593086785,
        "lon": 20.145284352820997,
        "alt_km": 1162.3430636383682,
        "timestamp": "2025-12-14T03:55:53.056191+00:00",
        "meta_object_name": "OSCAR 25",
        "meta_object_id": "1988-074A",
        "meta_epoch": "2025-12-13T07:57:09.485856",
        "meta_mean_motion": 13.42623393,
        "meta_eccentricity": 0.0094466,
        "meta_inclination": 90.0348,
        "meta_ra_of_asc_node": 20.2462,
        "meta_arg_of_pericenter": 244.1215,
        "meta_mean_anomaly": 126.3325,
        "meta_ephemeris_type": 0,
        "meta_classification_type": "U",
        "meta_norad_cat_id": 19419,
        "meta_element_set_no": 999,
        "meta_rev_at_epoch": 82648,
        "meta_bstar": 0.000205936,
        "meta_mean_motion_dot": 1.28e-06,
        "meta_mean_motion_ddot": 0,
        "tle_line1": "1 19419U 88074A   25347.33135979  .00000128  00000+0  20594-3 0  9995",
        "tle_line2": "2 19419  90.0348  20.2462 0094466 244.1215 126.3325 13.42623393826480"
      },
      "geometry": {
        "type": "Point",
        "coordinates": [
          20.145284352820997,
          71.45538593086785
        ]
      }
    },
    {
      "type": "Feature",
      "properties": {
        "norad_id": 19420,
        "name": "OSCAR 31",
        "group": "nnss",
        "lat": -43.7956568036581,
        "lon": 20.634222857445717,
        "alt_km": 1094.2109907164004,
        "timestamp": "2025-12-14T03:55:53.056201+00:00",
        "meta_object_name": "OSCAR 31",
        "meta_object_id": "1988-074B",
        "meta_epoch": "2025-12-13T03:24:45.124416",
        "meta_mean_motion": 13.42584645,
        "meta_eccentricity": 0.00927729,
        "meta_inclination": 90.0364,
        "meta_ra_of_asc_node": 20.5956,
        "meta_arg_of_pericenter": 238.7841,
        "meta_mean_anomaly": 181.5784,
        "meta_ephemeris_type": 0,
        "meta_classification_type": "U",
        "meta_norad_cat_id": 19420,
        "meta_element_set_no": 999,
        "meta_rev_at_epoch": 82656,
        "meta_bstar": 0.00016795931,
        "meta_mean_motion_dot": 1.06e-06,
        "meta_mean_motion_ddot": 0,
        "tle_line1": "1 19420U 88074B   25347.14218894  .00000106  00000+0  16796-3 0  9999",
        "tle_line2": "2 19420  90.0364  20.5956 0092772 238.7841 181.5784 13.42584645826560"
      },
      "geometry": {
        "type": "Point",
        "coordinates": [
          20.634222857445717,
          -43.7956568036581
        ]
      }
    }
  ]
}